POPACS 1                
1 39268U 13055D   22137.12530428  .00010821  00000+0  28014-3 0  9991
2 39268  80.9969 273.1652 0574541 295.1062  59.1568 14.49446306448762
POPACS 2                
1 39269U 13055E   22137.50160654  .00016400  00000+0  44773-3 0  9993
2 39269  81.0099 328.6554 0650213  78.8270 288.5254 14.32394483445750
POPACS 3                
1 39270U 13055F   22137.33787344  .00009316  00000+0  28304-3 0  9997
2 39270  81.0152   1.1257 0691341 170.7577 190.7140 14.21401331424219
ASTRA 2E                
1 39285U 13056A   22137.51306230  .00000156  00000+0  00000+0 0  9997
2 39285   0.0680 331.6402 0002269  66.0279  50.6989  1.00269428 31486
SHIJIAN-16 (SJ-16)      
1 39358U 13057A   22137.47255513  .00000711  00000+0  84089-4 0  9992
2 39358  74.9732 286.2531 0019005 234.6184 125.3229 14.86105122464392
FM-6                    
1 39360U 13058A   22137.52060375 -.00000010  00000+0  00000+0 0  9991
2 39360   0.0278 292.5105 0000734 337.6694  36.2748  1.00269077 31103
RADUGA-1M 3             
1 39375U 13062A   22137.51437058  .00000162  00000+0  00000+0 0  9994
2 39375   2.1534  90.1555 0004079 130.1059 235.0912  1.00271344 31174
STPSAT-3                
1 39380U 13064A   22137.23137768  .00035737  00000+0  79749-3 0  9992
2 39380  40.4978 226.6851 0004112  90.3354 269.7933 15.42804381474470
YAOGAN 19               
1 39410U 13065A   22137.48379886 -.00000029  00000+0  34570-4 0  9994
2 39410 100.0735 166.6389 0008603 289.9809  70.0380 13.15499805407549
APRIZESAT 7             
1 39416U 13066A   22137.47884484  .00001265  00000+0  15417-3 0  9995
2 39416  97.5706 119.1644 0042452  99.7448 260.8565 14.84395249459440
ZACUBE-1 (TSHEPISOSAT)  
1 39417U 13066B   22137.45004001  .00002657  00000+0  32971-3 0  9993
2 39417  97.6346 110.3552 0058856 144.8640 215.6478 14.82210742458536
SKYSAT-A                
1 39418U 13066C   22137.48529438  .00003341  00000+0  27376-3 0  9997
2 39418  97.5556 210.2153 0021479  15.4828 344.7048 14.99768359464015
DUBAISAT-2              
1 39419U 13066D   22137.45080725  .00002140  00000+0  20090-3 0  9998
2 39419  97.4479 171.0049 0014324  29.5513 330.6525 14.94880806462564
OPTOS                   
1 39420U 13066E   22137.51105431  .00001963  00000+0  34206-3 0  9995
2 39420  97.8244  57.2878 0137518  94.3365 267.3565 14.63062599452747
STSAT-3                 
1 39422U 13066G   22137.47085797  .00001494  00000+0  15798-3 0  9998
2 39422  97.4700 144.2906 0023485  29.0488 331.2022 14.90406128461221
WNISAT-1                
1 39423U 13066H   22137.24624152  .00000422  00000+0  93073-4 0  9991
2 39423  97.7569  21.0160 0173211 235.1864 123.2931 14.53450454449913
APRIZESAT 8             
1 39425U 13066K   22137.45176516  .00000955  00000+0  12524-3 0  9994
2 39425  97.6246 110.3866 0052534 140.8342 219.6692 14.81559225458379
TRITON-1                
1 39427U 13066M   22137.54557398  .00003573  00000+0  56335-3 0  9994
2 39427  97.8124  74.6889 0112363   4.3803 355.8359 14.68852882454243
DELFI-N3XT              
1 39428U 13066N   22137.53706181  .00005980  00000+0  92393-3 0  9998
2 39428  97.8141  73.2291 0118525  17.5609 342.9641 14.68990495453996
GOMX-1                  
1 39430U 13066Q   22137.48031961  .00001090  00000+0  20213-3 0  9992
2 39430  97.8125  46.4487 0150315 142.1318 219.0589 14.60091135451779
FIRST-MOVE              
1 39439U 13066Z   22137.45999898  .00005525  00000+0  64653-3 0  9993
2 39439  97.6359 112.6259 0064345 140.5647 220.0278 14.83945719457451
CUBEBUG-2 (LO-74)       
1 39440U 13066AA  22137.42685431  .00001906  00000+0  26511-3 0  9997
2 39440  97.7241  96.2958 0077500 231.4931 127.9313 14.76913129455703
NEE-02 KRYSAOR          
1 39441U 13066AB  22137.33500476  .00001366  00000+0  19742-3 0  9991
2 39441  97.7350  93.4102 0079170 245.3519 113.9431 14.75675125455443
FUNCUBE-1 (AO-73)       
1 39444U 13066AE  22137.48912490  .00003479  00000+0  41926-3 0  9999
2 39444  97.6226 112.7939 0058015 133.3619 227.2450 14.83262050456935
UWE-3                   
1 39446U 13066AG  22137.43465149  .00002004  00000+0  26475-3 0  9995
2 39446  97.6835 102.8468 0068425 189.1313 170.8660 14.79456607455872
SWARM B                 
1 39451U 13067A   22137.54015098  .00003291  00000+0  14984-3 0  9999
2 39451  87.7515  70.5579 0003259  85.5698 274.5919 15.20347347456233
SWARM A                 
1 39452U 13067B   22137.03779626  .00010102  00000+0  20397-3 0  9992
2 39452  87.3633 235.8937 0003124 112.0573 248.1018 15.46342529477093
SWARM C                 
1 39453U 13067C   22137.55400515  .00011151  00000+0  22524-3 0  9997
2 39453  87.3485 235.2386 0003124 110.9989 249.1604 15.46342245477131
SHIYAN 5 (SY-5)         
1 39455U 13068A   22137.51739246  .00000195  00000+0  72043-4 0  9990
2 39455  98.2164  51.1409 0014913 148.4483 211.7607 14.42020220446586
SES-8                   
1 39460U 13071A   22137.45456883 -.00000263  00000+0  00000+0 0  9992
2 39460   0.0124 254.9185 0002873 173.8045  65.0678  1.00270620 29475
AEROCUBE 5A             
1 39465U 13072D   22137.42785545  .00040383  00000+0  24950-2 0  9994
2 39465 120.4833 196.8479 0200334 243.9901 114.0402 14.94397429144984
AEROCUBE 5B             
1 39466U 13072E   22137.39313793  .00091334  00000+0  38212-2 0  9991
2 39466 120.4618 279.5004 0152420 264.9296  93.4361 15.12928654146023
INMARSAT 5-F1           
1 39476U 13073A   22136.94583587  .00000036  00000+0  00000+0 0  9993
2 39476   0.0162 332.1484 0000129 162.8497 142.7479  1.00271122 30625
TKSAT-1 (TUPAC KATARI)  
1 39481U 13075A   22137.49003670 -.00000188  00000+0  00000+0 0  9991
2 39481   0.0442 100.2691 0002888 296.0616 288.0598  1.00272229 30639
COSMOS 2488             
1 39483U 13076A   22137.50336793  .00000014  00000+0  31763-4 0  9993
2 39483  82.4889  18.3056 0020162 103.5650 256.7678 12.42883490380780
COSMOS 2489             
1 39484U 13076B   22137.47517247  .00000022  00000+0  86765-4 0  9996
2 39484  82.4931  19.2460 0022172 104.7070 255.6475 12.42892877380849
COSMOS 2490             
1 39485U 13076C   22137.44999646  .00000014  00000+0  31098-4 0  9991
2 39485  82.4865  17.9908 0021483 119.2015 241.1222 12.42890395380788
EXPRESS-AM5             
1 39487U 13077A   22137.10123758 -.00000273  00000+0  00000+0 0  9992
2 39487   0.0100 166.7826 0001019 182.6995  61.7800  1.00270115 31396
COSMOS 2493 (SKRL-756 1)
1 39490U 13078A   22137.54583630  .00002720  00000+0  28371-3 0  9997
2 39490  82.4183 263.7986 0016905 194.8734 165.1990 14.89330426455095
COSMOS 2494 (SKRL-756 2)
1 39491U 13078B   22137.55079749  .00003126  00000+0  31425-3 0  9995
2 39491  82.4187 257.6409 0022067 172.2046 187.9521 14.90772087455653
GSAT-14                 
1 39498U 14001A   22137.37860837 -.00000071  00000+0  00000+0 0  9993
2 39498   0.0472 120.9385 0001718 171.6566 152.7652  1.00271066 30436
THAICOM 6               
1 39500U 14002A   22137.45125455 -.00000115  00000+0  00000+0 0  9996
2 39500   0.0898 111.2169 0003926 345.2398  19.6218  1.00270733 30507
TDRS 12                 
1 39504U 14004A   22137.49919461 -.00000267  00000+0  00000+0 0  9992
2 39504   3.8872 346.7688 0004563 104.7770 282.4489  1.00274492 29329
ABS-2                   
1 39508U 14006A   22137.45055679 -.00000080  00000+0  00000+0 0  9999
2 39508   0.0340  32.7891 0004321   8.6268  70.8313  1.00271244 30336
ATHENA-FIDUS            
1 39509U 14006B   22137.51489389  .00000160  00000+0  00000+0 0  9994
2 39509   0.0072  45.9631 0001676  18.6908  33.6963  1.00272566 30122
TURKSAT 4A              
1 39522U 14007A   22137.51576606  .00000152  00000+0  00000+0 0  9990
2 39522   0.0144 276.4603 0001427  88.0687  98.3398  1.00270036 30036
NAVSTAR 69 (USA 248)    
1 39533U 14008A   22137.43081369  .00000049  00000+0  00000+0 0  9996
2 39533  53.6256 210.1239 0059166 207.6378 152.1267  2.00551826 59760
GPM-CORE                
1 39574U 14009C   22137.54470537  .00027494  00000+0  38667-3 0  9990
2 39574  65.0029 293.5791 0009875 259.4286 100.5749 15.56543746466797
EXPRESS-AT1             
1 39612U 14010A   22135.60294492  .00000089  00000+0  00000+0 0  9991
2 39612   0.0110 269.3682 0001241 217.5235  19.5021  1.00274239 30070
EXPRESS-AT2             
1 39613U 14010B   22137.46355230 -.00000275  00000+0  00000+0 0  9994
2 39613   0.0125 303.6899 0001013 147.2605  90.9161  1.00270769 29920
AMAZONAS 4A             
1 39616U 14011A   22137.49265324 -.00000246  00000+0  00000+0 0  9993
2 39616   0.0123 295.6293 0003082 168.4129 234.4871  1.00270034 29741
ASTRA 5B                
1 39617U 14011B   22137.51367284  .00000161  00000+0  00000+0 0  9990
2 39617   0.0541 312.0395 0003767 110.1717  29.4111  1.00270862 29715
COSMOS 2492 [GLONASS-M] 
1 39620U 14012A   22136.29504322 -.00000045  00000+0  00000+0 0  9997
2 39620  65.8418   4.2166 0013201 333.4472 136.0757  2.13103384 63425
SJ-11-06                
1 39624U 14014A   22137.47425199  .00000371  00000+0  88537-4 0  9995
2 39624  98.1382 187.1891 0014201 347.4104  12.6749 14.59120214433124
SENTINEL-1A             
1 39634U 14016A   22137.45905771  .00000050  00000+0  20311-4 0  9995
2 39634  98.1822 145.4491 0001295  79.4278 280.7072 14.59198171432505
IRNSS-1B                
1 39635U 14017A   22135.93452125  .00000089  00000+0  00000+0 0  9998
2 39635  28.8091 265.6489 0022432 182.1290 177.2774  1.00272022 29813
LUCH 5V                 
1 39727U 14023A   22137.45448161 -.00000263  00000+0  00000+0 0  9996
2 39727   1.4263  74.8784 0003642  16.5364  42.0297  1.00274644 29401
KAZSAT-3                
1 39728U 14023B   22137.44732972  .00000067  00000+0  00000+0 0  9993
2 39728   0.0110 335.9002 0000425 194.7580 284.0203  1.00270328 27494
KAZEOSAT 1              
1 39731U 14024A   22137.47050715  .00000150  00000+0  59306-4 0  9990
2 39731  98.4639 213.2201 0001237  78.1336 282.0004 14.41976261423620
